[{"OBJECT_NAME":"STARLINK-34596","OBJECT_ID":"2025-144J","EPOCH":"2026-03-09T21:39:20.340000","MEAN_MOTION":15.30205408,"ECCENTRICITY":0.0001675,"INCLINATION":53.1598,"RA_OF_ASC_NODE":180.1105,"ARG_OF_PERICENTER":49.236,"MEAN_ANOMALY":310.8786,"EPHEMERIS_TYPE":0,"CLASSIFICATION_TYPE":"U","NORAD_CAT_ID":64732,"ELEMENT_SET_NO":999,"REV_AT_EPOCH":3974,"BSTAR":0.0014048153,"MEAN_MOTION_DOT":0.00041487,"MEAN_MOTION_DDOT":0},{"OBJECT_NAME":"THOR AGENA B DEB","OBJECT_ID":"1965-098G","EPOCH":"2026-03-09T23:22:06.853152","MEAN_MOTION":13.57256453,"ECCENTRICITY":0.07679635,"INCLINATION":79.6109,"RA_OF_ASC_NODE":51.0692,"ARG_OF_PERICENTER":143.4347,"MEAN_ANOMALY":222.1845,"EPHEMERIS_TYPE":0,"CLASSIFICATION_TYPE":"U","NORAD_CAT_ID":1951,"ELEMENT_SET_NO":999,"REV_AT_EPOCH":79416,"BSTAR":0.00077607754,"MEAN_MOTION_DOT":4.232e-5,"MEAN_MOTION_DDOT":0}]
